[{"OBJECT_NAME":"DONGPO 02","OBJECT_ID":"2022-098J","EPOCH":"2026-03-09T23:27:05.924160","MEAN_MOTION":15.59463601,"ECCENTRICITY":0.00021558,"INCLINATION":97.5385,"RA_OF_ASC_NODE":192.9325,"ARG_OF_PERICENTER":312.765,"MEAN_ANOMALY":47.3424,"EPHEMERIS_TYPE":0,"CLASSIFICATION_TYPE":"U","NORAD_CAT_ID":53452,"ELEMENT_SET_NO":999,"REV_AT_EPOCH":19926,"BSTAR":0.00088877097,"MEAN_MOTION_DOT":0.00070735,"MEAN_MOTION_DDOT":0},{"OBJECT_NAME":"STARLINK-36628","OBJECT_ID":"2026-018G","EPOCH":"2026-03-09T22:00:01.999584","MEAN_MOTION":15.71788373,"ECCENTRICITY":0.00016367,"INCLINATION":97.2851,"RA_OF_ASC_NODE":134.7143,"ARG_OF_PERICENTER":74.8592,"MEAN_ANOMALY":228.4539,"EPHEMERIS_TYPE":0,"CLASSIFICATION_TYPE":"U","NORAD_CAT_ID":67595,"ELEMENT_SET_NO":999,"REV_AT_EPOCH":587,"BSTAR":-0.017206569,"MEAN_MOTION_DOT":-0.01926622,"MEAN_MOTION_DDOT":0}]
